{
  "type": "FeatureCollection",
  "features": [
    {
      "type": "Feature",
      "properties": {
        "norad_id": 33376,
        "name": "GALAXY 19 (G-19)",
        "group": "intelsat",
        "lat": 0.03413384572379742,
        "lon": 91.27116596918452,
        "alt_km": 35800.38665011609,
        "timestamp": "2025-12-04T07:39:35.838020+00:00",
        "meta_object_name": "GALAXY 19 (G-19)",
        "meta_object_id": "2008-045A",
        "meta_epoch": "2025-12-03T13:17:38.372640",
        "meta_mean_motion": 1.00270861,
        "meta_eccentricity": 0.00033567,
        "meta_inclination": 0.016,
        "meta_ra_of_asc_node": 6.4574,
        "meta_arg_of_pericenter": 255.4369,
        "meta_mean_anomaly": 273.1641,
        "meta_ephemeris_type": 0,
        "meta_classification_type": "U",
        "meta_norad_cat_id": 33376,
        "meta_element_set_no": 999,
        "meta_rev_at_epoch": 6294,
        "meta_bstar": 0,
        "meta_mean_motion_dot": -1.21e-06,
        "meta_mean_motion_ddot": 0,
        "tle_line1": "1 33376U 08045A   25337.55391635 -.00000121  00000+0  00000+0 0  9999",
        "tle_line2": "2 33376   0.0160   6.4574 0003356 255.4369 273.1641  1.00270861 62948"
      },
      "geometry": {
        "type": "Point",
        "coordinates": [
          91.27116596918452,
          0.03413384572379742
        ]
      }
    },
    {
      "type": "Feature",
      "properties": {
        "norad_id": 35493,
        "name": "FM-5",
        "group": "intelsat",
        "lat": 0.012145459256880698,
        "lon": 102.11765687312818,
        "alt_km": 35784.50698897927,
        "timestamp": "2025-12-04T07:39:35.838031+00:00",
        "meta_object_name": "FM-5",
        "meta_object_id": "2009-034A",
        "meta_epoch": "2025-12-03T13:20:45.573792",
        "meta_mean_motion": 1.00269483,
        "meta_eccentricity": 0.0001124,
        "meta_inclination": 0.0219,
        "meta_ra_of_asc_node": 284.9985,
        "meta_arg_of_pericenter": 238.2695,
        "meta_mean_anomaly": 23.4279,
        "meta_ephemeris_type": 0,
        "meta_classification_type": "U",
        "meta_norad_cat_id": 35493,
        "meta_element_set_no": 999,
        "meta_rev_at_epoch": 4468,
        "meta_bstar": 0,
        "meta_mean_motion_dot": -1.82e-06,
        "meta_mean_motion_ddot": 0,
        "tle_line1": "1 35493U 09034A   25337.55608303 -.00000182  00000+0  00000+0 0  9990",
        "tle_line2": "2 35493   0.0219 284.9985 0001124 238.2695  23.4279  1.00269483 44688"
      },
      "geometry": {
        "type": "Point",
        "coordinates": [
          102.11765687312818,
          0.012145459256880698
        ]
      }
    },
    {
      "type": "Feature",
      "properties": {
        "norad_id": 36097,
        "name": "INTELSAT 14 (IS-14)",
        "group": "intelsat",
        "lat": -0.007542460671026895,
        "lon": 143.24863961803425,
        "alt_km": 35790.474851417544,
        "timestamp": "2025-12-04T07:39:35.838041+00:00",
        "meta_object_name": "INTELSAT 14 (IS-14)",
        "meta_object_id": "2009-064A",
        "meta_epoch": "2025-12-03T16:57:57.794688",
        "meta_mean_motion": 1.00271267,
        "meta_eccentricity": 0.00026605,
        "meta_inclination": 0.0152,
        "meta_ra_of_asc_node": 306.2108,
        "meta_arg_of_pericenter": 308.85,
        "meta_mean_anomaly": 27.2278,
        "meta_ephemeris_type": 0,
        "meta_classification_type": "U",
        "meta_norad_cat_id": 36097,
        "meta_element_set_no": 999,
        "meta_rev_at_epoch": 5864,
        "meta_bstar": 0,
        "meta_mean_motion_dot": -2.56e-06,
        "meta_mean_motion_ddot": 0,
        "tle_line1": "1 36097U 09064A   25337.70691892 -.00000256  00000+0  00000+0 0  9998",
        "tle_line2": "2 36097   0.0152 306.2108 0002660 308.8500  27.2278  1.00271267 58640"
      },
      "geometry": {
        "type": "Point",
        "coordinates": [
          143.24863961803425,
          -0.007542460671026895
        ]
      }
    },
    {
      "type": "Feature",
      "properties": {
        "norad_id": 36106,
        "name": "INTELSAT 15 (IS-15)",
        "group": "intelsat",
        "lat": -0.03258815835013787,
        "lon": -86.55970736638163,
        "alt_km": 35776.670225034,
        "timestamp": "2025-12-04T07:39:35.838052+00:00",
        "meta_object_name": "INTELSAT 15 (IS-15)",
        "meta_object_id": "2009-067A",
        "meta_epoch": "2025-12-03T18:59:41.161632",
        "meta_mean_motion": 1.00270254,
        "meta_eccentricity": 0.0002465,
        "meta_inclination": 0.0152,
        "meta_ra_of_asc_node": 328.9523,
        "meta_arg_of_pericenter": 285.4654,
        "meta_mean_anomaly": 188.5405,
        "meta_ephemeris_type": 0,
        "meta_classification_type": "U",
        "meta_norad_cat_id": 36106,
        "meta_element_set_no": 999,
        "meta_rev_at_epoch": 3927,
        "meta_bstar": 0,
        "meta_mean_motion_dot": -1.68e-06,
        "meta_mean_motion_ddot": 0,
        "tle_line1": "1 36106U 09067A   25337.79144863 -.00000168  00000+0  00000+0 0  9994",
        "tle_line2": "2 36106   0.0152 328.9523 0002465 285.4654 188.5405  1.00270254 39272"
      },
      "geometry": {
        "type": "Point",
        "coordinates": [
          -86.55970736638163,
          -0.03258815835013787
        ]
      }
    },
    {
      "type": "Feature",
      "properties": {
        "norad_id": 36131,
        "name": "DIRECTV 12",
        "group": "intelsat",
        "lat": -0.0009324169621507715,
        "lon": 85.55932403642875,
        "alt_km": 35786.41115661702,
        "timestamp": "2025-12-04T07:39:35.838063+00:00",
        "meta_object_name": "DIRECTV 12",
        "meta_object_id": "2009-075A",
        "meta_epoch": "2025-12-03T13:16:01.028352",
        "meta_mean_motion": 1.00271981,
        "meta_eccentricity": 1.648e-05,
        "meta_inclination": 0.0116,
        "meta_ra_of_asc_node": 84.8358,
        "meta_arg_of_pericenter": 123.1673,
        "meta_mean_anomaly": 320.9288,
        "meta_ephemeris_type": 0,
        "meta_classification_type": "U",
        "meta_norad_cat_id": 36131,
        "meta_element_set_no": 999,
        "meta_rev_at_epoch": 4459,
        "meta_bstar": 0,
        "meta_mean_motion_dot": -8.6e-07,
        "meta_mean_motion_ddot": 0,
        "tle_line1": "1 36131U 09075A   25337.55278968 -.00000086  00000+0  00000+0 0  9998",
        "tle_line2": "2 36131   0.0116  84.8358 0000164 123.1673 320.9288  1.00271981 44597"
      },
      "geometry": {
        "type": "Point",
        "coordinates": [
          85.55932403642875,
          -0.0009324169621507715
        ]
      }
    },
    {
      "type": "Feature",
      "properties": {
        "norad_id": 36397,
        "name": "INTELSAT 16 (IS-16)",
        "group": "intelsat",
        "lat": 0.015321300473638663,
        "lon": 112.05176746644445,
        "alt_km": 35794.75904574401,
        "timestamp": "2025-12-04T07:39:35.838073+00:00",
        "meta_object_name": "INTELSAT 16 (IS-16)",
        "meta_object_id": "2010-006A",
        "meta_epoch": "2025-12-03T09:58:04.988928",
        "meta_mean_motion": 1.00269955,
        "meta_eccentricity": 0.00023778,
        "meta_inclination": 0.0121,
        "meta_ra_of_asc_node": 313.059,
        "meta_arg_of_pericenter": 302.3904,
        "meta_mean_anomaly": 250.3777,
        "meta_ephemeris_type": 0,
        "meta_classification_type": "U",
        "meta_norad_cat_id": 36397,
        "meta_element_set_no": 999,
        "meta_rev_at_epoch": 5769,
        "meta_bstar": 0,
        "meta_mean_motion_dot": -2.26e-06,
        "meta_mean_motion_ddot": 0,
        "tle_line1": "1 36397U 10006A   25337.41533552 -.00000226  00000+0  00000+0 0  9992",
        "tle_line2": "2 36397   0.0121 313.0590 0002377 302.3904 250.3777  1.00269955 57690"
      },
      "geometry": {
        "type": "Point",
        "coordinates": [
          112.05176746644445,
          0.015321300473638663
        ]
      }
    },
    {
      "type": "Feature",
      "properties": {
        "norad_id": 37185,
        "name": "XM-5",
        "group": "intelsat",
        "lat": 0.04106243395029292,
        "lon": 73.06220056749046,
        "alt_km": 35785.80528878722,
        "timestamp": "2025-12-04T07:39:35.838084+00:00",
        "meta_object_name": "XM-5",
        "meta_object_id": "2010-053A",
        "meta_epoch": "2025-12-03T16:37:59.708352",
        "meta_mean_motion": 1.00269411,
        "meta_eccentricity": 0.00013329,
        "meta_inclination": 0.0614,
        "meta_ra_of_asc_node": 273.227,
        "meta_arg_of_pericenter": 240.4281,
        "meta_mean_anomaly": 53.4318,
        "meta_ephemeris_type": 0,
        "meta_classification_type": "U",
        "meta_norad_cat_id": 37185,
        "meta_element_set_no": 999,
        "meta_rev_at_epoch": 5552,
        "meta_bstar": 0,
        "meta_mean_motion_dot": -5e-08,
        "meta_mean_motion_ddot": 0,
        "tle_line1": "1 37185U 10053A   25337.69305218 -.00000005  00000+0  00000+0 0  9991",
        "tle_line2": "2 37185   0.0614 273.2270 0001332 240.4281  53.4318  1.00269411 55525"
      },
      "geometry": {
        "type": "Point",
        "coordinates": [
          73.06220056749046,
          0.04106243395029292
        ]
      }
    }
  ]
}